NORAD_CAT_ID,OBJECT_NAME,OBJECT_TYPE,EPOCH,MEAN_MOTION,ECCENTRICITY,INCLINATION,RA_OF_ASC_NODE,ARG_OF_PERICENTER,MEAN_ANOMALY,BSTAR,MEAN_MOTION_DOT,MEAN_MOTION_DDOT,TLE_LINE0,TLE_LINE1,TLE_LINE2,SEMIMAJOR_AXIS,PERIOD,APOGEE,PERIGEE,DECAYED
53740.0,STARLINK-4607,PAYLOAD,2024-08-04 02:23:31,15.08874246,0.0001396,53.2179,359.3625,95.0569,265.0582,0.0015895,0.00025123,0.0,0 STARLINK-4607,1 53740U 22107AS  24217.09966463  .00025123  00000-0  15895-2 0  9993,2 53740  53.2179 359.3625 0001396  95.0569 265.0582 15.08874246105867,6917.776,95.435,540.606,538.675,0.0
53740.0,STARLINK-4607,PAYLOAD,2024-08-04 13:31:13,15.08848635,0.0001288,53.2188,357.283,88.1378,271.9761,0.00098282,0.00015392,0.0,0 STARLINK-4607,1 53740U 22107AS  24217.56334823  .00015392  00000-0  98282-3 0  9993,2 53740  53.2188 357.2830 0001288  88.1378 271.9761 15.08848635105939,6917.854,95.437,540.61,538.828,0.0
53740.0,STARLINK-4607,PAYLOAD,2024-08-04 15:06:36,15.08853707,0.0001359,53.2178,356.9835,77.6186,282.4959,0.0015733,0.00024849,0.0,0 STARLINK-4607,1 53740U 22107AS  24217.62958812  .00024849  00000-0  15733-2 0  9996,2 53740  53.2178 356.9835 0001359  77.6186 282.4959 15.08853707106728,6917.838,95.437,540.644,538.763,0.0
53740.0,STARLINK-4607,PAYLOAD,2024-08-04 18:17:22,15.08857306,0.0001436,53.2187,356.391,85.4324,274.6832,0.0016419,0.00025952,0.0,0 STARLINK-4607,1 53740U 22107AS  24217.76206655  .00025952  00000-0  16419-2 0  9990,2 53740  53.2187 356.3910 0001436  85.4324 274.6832 15.08857306106747,6917.827,95.436,540.686,538.699,0.0
53740.0,STARLINK-4607,PAYLOAD,2024-08-05 02:14:17,15.08879669,0.00015,53.2186,354.9043,85.1601,274.9562,0.0020021,0.00031754,0.0,0 STARLINK-4607,1 53740U 22107AS  24218.09326020  .00031754  00000-0  20021-2 0  9997,2 53740  53.2186 354.9043 0001500  85.1601 274.9562 15.08879669106013,6917.759,95.435,540.662,538.586,0.0
53740.0,STARLINK-4607,PAYLOAD,2024-08-05 13:22:00,15.08834294,0.0001445,53.2174,352.8211,90.6493,269.4665,0.00067545,0.00010476,0.0,0 STARLINK-4607,1 53740U 22107AS  24218.55694802  .00010476  00000-0  67545-3 0  9995,2 53740  53.2174 352.8211 0001445  90.6493 269.4665 15.08834294106087,6917.898,95.438,540.762,538.763,0.0
53740.0,STARLINK-4607,PAYLOAD,2024-08-05 16:32:46,15.08839553,0.0001411,53.2171,352.2251,87.69,272.4253,0.0014544,0.00022934,0.0,0 STARLINK-4607,1 53740U 22107AS  24218.68942761  .00022934  00000-0  14544-2 0  9991,2 53740  53.2171 352.2251 0001411  87.6900 272.4253 15.08839553106882,6917.882,95.438,540.723,538.771,0.0
53740.0,STARLINK-4607,PAYLOAD,2024-08-06 13:12:48,15.08823519,0.0001519,53.218,348.3631,95.187,264.9296,0.00086293,0.00013466,0.0,0 STARLINK-4607,1 53740U 22107AS  24219.55055660  .00013466  00000-0  86293-3 0  9992,2 53740  53.2180 348.3631 0001519  95.1870 264.9296 15.08823519106236,6917.931,95.439,540.847,538.745,0.0
53740.0,STARLINK-4607,PAYLOAD,2024-08-06 14:48:11,15.08816252,0.0001218,53.2179,348.0664,107.3454,252.7671,0.00099273,0.00015536,0.0,0 STARLINK-4607,1 53740U 22107AS  24219.61679731  .00015536  00000-0  99273-3 0  9992,2 53740  53.2179 348.0664 0001218 107.3454 252.7671 15.08816252107023,6917.953,95.439,540.661,538.975,0.0
53740.0,STARLINK-4607,PAYLOAD,2024-08-06 16:23:34,15.08821131,0.0001452,53.2174,347.7676,98.0043,262.1114,0.00097483,0.00015252,0.0,0 STARLINK-4607,1 53740U 22107AS  24219.68303745  .00015252  00000-0  97483-3 0  9994,2 53740  53.2174 347.7676 0001452  98.0043 262.1114 15.08821131107037,6917.938,95.439,540.808,538.799,0.0
53740.0,STARLINK-4607,PAYLOAD,2024-08-07 08:17:25,15.08853874,0.0001444,53.2172,344.7923,97.8078,262.3078,0.0013276,0.00020912,0.0,0 STARLINK-4607,1 53740U 22107AS  24220.34543609  .00020912  00000-0  13276-2 0  9990,2 53740  53.2172 344.7923 0001444  97.8078 262.3078 15.08853874107134,6917.838,95.437,540.702,538.704,0.0
53740.0,STARLINK-4607,PAYLOAD,2024-08-08 12:54:21,15.08856127,6.72e-05,53.2179,339.439,73.3237,286.7828,0.00060411,9.344e-05,0.0,0 STARLINK-4607,1 53740U 22107AS  24221.53775073  .00009344  00000-0  60411-3 0  9994,2 53740  53.2179 339.4390 0000672  73.3237 286.7828 15.08856127107315,6917.831,95.437,540.161,539.231,0.0
53740.0,STARLINK-4607,PAYLOAD,2024-08-08 14:29:44,15.08849029,0.0001282,53.2176,339.1414,95.5732,264.5407,0.00022545,3.303e-05,0.0,0 STARLINK-4607,1 53740U 22107AS  24221.60399093  .00003303  00000-0  22545-3 0  9991,2 53740  53.2176 339.1414 0001282  95.5732 264.5407 15.08849029106544,6917.853,95.437,540.605,538.831,0.0
53740.0,STARLINK-4607,PAYLOAD,2024-08-09 12:45:08,15.0884328,0.0001356,53.2175,334.9794,95.4613,264.6534,9.0863e-05,1.159e-05,0.0,0 STARLINK-4607,1 53740U 22107AS  24222.53135123  .00001159  00000-0  90863-4 0  9992,2 53740  53.2175 334.9794 0001356  95.4613 264.6534 15.08843280106686,6917.87,95.437,540.673,538.797,0.0
53740.0,STARLINK-4607,PAYLOAD,2024-08-09 14:20:31,15.08844053,0.0001283,53.2168,334.6827,74.6765,285.4369,8.0059e-05,9.87e-06,0.0,0 STARLINK-4607,1 53740U 22107AS  24222.59759165  .00000987  00000-0  80059-4 0  9990,2 53740  53.2168 334.6827 0001283  74.6765 285.4369 15.08844053107472,6917.868,95.437,540.621,538.845,0.0
53740.0,STARLINK-4607,PAYLOAD,2024-08-09 17:31:18,15.0883826,0.0001272,53.2169,334.084,75.5915,284.5218,0.00037099,5.621e-05,0.0,0 STARLINK-4607,1 53740U 22107AS  24222.73007555  .00005621  00000-0  37099-3 0  9990,2 53740  53.2169 334.0840 0001272  75.5915 284.5218 15.08838260107495,6917.886,95.438,540.631,538.871,0.0
53740.0,STARLINK-4607,PAYLOAD,2024-08-10 12:35:56,15.08835188,0.0001366,53.2177,330.5183,107.9871,252.127,3.3735e-05,2.49e-06,0.0,0 STARLINK-4607,1 53740U 22107AS  24223.52495500  .00000249  00000-0  33735-4 0  9994,2 53740  53.2177 330.5183 0001366 107.9871 252.1270 15.08835188106832,6917.895,95.438,540.705,538.815,0.0
53740.0,STARLINK-4607,PAYLOAD,2024-08-10 14:11:19,15.08836116,0.0001386,53.2178,330.2207,110.498,249.6161,4.6079e-05,4.45e-06,0.0,0 STARLINK-4607,1 53740U 22107AS  24223.59119456  .00000445  00000-0  46079-4 0  9997,2 53740  53.2178 330.2207 0001386 110.4980 249.6161 15.08836116107629,6917.892,95.438,540.716,538.798,0.0
53740.0,STARLINK-4607,PAYLOAD,2024-08-10 17:22:05,15.08835529,0.0001487,53.2177,329.6213,115.7196,244.3949,2.8101e-05,1.59e-06,0.0,0 STARLINK-4607,1 53740U 22107AS  24223.72367445  .00000159  00000-0  28101-4 0  9993,2 53740  53.2177 329.6213 0001487 115.7196 244.3949 15.08835529107641,6917.894,95.438,540.788,538.73,0.0
53740.0,STARLINK-4607,PAYLOAD,2024-08-10 23:43:36,15.08859117,0.0001253,53.2178,328.437,82.7174,277.3961,0.00033423,5.038e-05,0.0,0 STARLINK-4607,1 53740U 22107AS  24223.98862068  .00005038  00000-0  33423-3 0  9995,2 53740  53.2178 328.4370 0001253  82.7174 277.3961 15.08859117106900,6917.822,95.436,540.554,538.82,0.0
53740.0,STARLINK-4607,PAYLOAD,2024-08-11 14:02:06,15.08843917,0.0003303,53.2178,325.759,89.4529,270.6842,7.7591e-05,9.46e-06,0.0,0 STARLINK-4607,1 53740U 22107AS  24224.58479561  .00000946  00000-0  77591-4 0  9992,2 53740  53.2178 325.7590 0003303  89.4529 270.6842 15.08843917106994,6917.868,95.437,542.018,537.448,0.0
53740.0,STARLINK-4607,PAYLOAD,2024-08-11 15:37:29,15.08840489,0.0001686,53.2176,325.462,79.8207,280.2975,5.2202e-05,5.43e-06,0.0,0 STARLINK-4607,1 53740U 22107AS  24224.65103630  .00000543  00000-0  52202-4 0  9996,2 53740  53.2176 325.4620 0001686  79.8207 280.2975 15.08840489107784,6917.879,95.438,540.91,538.578,0.0
53740.0,STARLINK-4607,PAYLOAD,2024-08-12 07:31:21,15.08821276,0.0001691,53.2176,322.4911,102.943,257.1751,-3.5457e-05,-8.52e-06,0.0,0 STARLINK-4607,1 53740U 22107AS  24225.31344569 -.00000852  00000-0 -35457-4 0  9996,2 53740  53.2176 322.4911 0001691 102.9430 257.1751 15.08821276107100,6917.938,95.439,540.972,538.633,0.0
53740.0,STARLINK-4607,PAYLOAD,2024-08-12 15:28:15,15.08863263,0.0001824,53.2185,321.0002,111.1827,248.936,0.00050017,7.686e-05,0.0,0 STARLINK-4607,1 53740U 22107AS  24225.64462341  .00007686  00000-0  50017-3 0  9999,2 53740  53.2185 321.0002 0001824 111.1827 248.9360 15.08863263107157,6917.809,95.436,540.936,538.412,0.0
53740.0,STARLINK-4607,PAYLOAD,2024-08-13 10:32:55,15.0875909,9.45e-05,53.2152,317.4353,52.193,307.9147,-0.0015462,-0.00024756,0.0,0 STARLINK-4607,1 53740U 22107AS  24226.43953527 -.00024756  00000-0 -15462-2 0  9991,2 53740  53.2152 317.4353 0000945  52.1930 307.9147 15.08759090107275,6918.128,95.443,540.646,539.339,0.0
53740.0,STARLINK-4607,PAYLOAD,2024-08-13 15:19:04,15.0879627,0.0001321,53.2189,316.5445,91.5298,268.5845,-0.0008026,-0.00013023,0.0,0 STARLINK-4607,1 53740U 22107AS  24226.63825080 -.00013023  00000-0 -80260-3 0  9999,2 53740  53.2189 316.5445 0001321  91.5298 268.5845 15.08796270107302,6918.014,95.44,540.793,538.965,0.0
53740.0,STARLINK-4607,PAYLOAD,2024-08-13 23:16:00,15.08797061,0.0001029,53.2152,315.0558,95.9276,264.1833,-0.0007026,-0.00011439,0.0,0 STARLINK-4607,1 53740U 22107AS  24226.96945300 -.00011439  00000-0 -70260-3 0  9991,2 53740  53.2152 315.0558 0001029  95.9276 264.1833 15.08797061107353,6918.012,95.44,540.589,539.165,0.0
53740.0,STARLINK-4607,PAYLOAD,2024-08-14 13:34:28,15.08847006,0.0001587,53.2153,312.3775,90.9266,269.1908,0.00068206,0.00010586,0.0,0 STARLINK-4607,1 53740U 22107AS  24227.56560608  .00010586  00000-0  68206-3 0  9999,2 53740  53.2153 312.3775 0001587  90.9266 269.1908 15.08847006107441,6917.859,95.437,540.822,538.626,0.0
53740.0,STARLINK-4607,PAYLOAD,2024-08-15 11:49:52,15.08835717,0.0001328,53.2148,308.2164,84.5443,275.5701,0.00036993,5.604e-05,0.0,0 STARLINK-4607,1 53740U 22107AS  24228.49297053  .00005604  00000-0  36993-3 0  9996,2 53740  53.2148 308.2164 0001328  84.5443 275.5701 15.08835717108360,6917.893,95.438,540.677,538.84,0.0
53740.0,STARLINK-4607,PAYLOAD,2024-08-15 22:57:33,15.08853787,0.0001696,53.2163,306.1327,96.9916,263.1269,0.00021153,3.081e-05,0.0,0 STARLINK-4607,1 53740U 22107AS  24228.95664144  .00003081  00000-0  21153-3 0  9995,2 53740  53.2163 306.1327 0001696  96.9916 263.1269 15.08853787107655,6917.838,95.437,540.877,538.53,0.0
